CZ-4B R/B               
1 28059U 03049C   19044.84691806 -.00000041  00000-0  19927-5 0  9999
2 28059  98.5038 310.5667 0049783 193.8310 216.9829 14.52552248811750
CZ-2C R/B               
1 28222U 04012C   19044.92708088  .00000308  00000-0  22657-4 0  9990
2 28222  97.6098   3.5357 0045983 266.2008 140.2745 15.09971702812110
SL-16 R/B               
1 28353U 04021B   19045.10042251  .00000014  00000-0  32396-4 0  9994
2 28353  70.9966 245.6351 0005315 334.9029  25.1834 14.14211801757960
CZ-2C R/B               
1 28480U 04046B   19045.32073005  .00000013  00000-0  20671-4 0  9999
2 28480  98.1487 111.2776 0141064 231.6761 170.6318 14.25693272740747
ARIANE 5 R/B            
1 28499U 04049H   19045.22141894  .00000017  00000-0  93454-5 0  9997
2 28499  98.0513 140.6830 0093348  55.0898   4.9807 14.79947716763777
CZ-2D R/B               
1 28738U 05024B   19044.94626634  .00000309  00000-0  21802-4 0  9996
2 28738  97.4292  77.4734 0013623  76.3496 283.9250 15.11719788747448
SUZAKU (ASTRO-EII)      
1 28773U 05025A   19044.95244373  .00000778  00000-0  34140-4 0  9992
2 28773  31.3833 317.9577 0004644 320.4401  39.5906 15.16906658749550
ALOS (DAICHI)           
1 28931U 06002A   19045.21406559  .00000131  00000-0  34328-4 0  9991
2 28931  97.8174  51.0104 0000669 117.2661 242.8609 14.62579104696187
H-2A R/B                
1 28932U 06002B   19044.82103990  .00000303  00000-0  34079-4 0  9995
2 28932  98.2646   4.0942 0090220 123.4671 258.4722 14.91894031708136
AKARI (ASTRO-F)         
1 28939U 06005A   19044.86160340  .00002243  00000-0  65767-4 0  9994
2 28939  98.1912 320.5589 0097629 234.7501 124.4573 15.31926617705885
RESURS-DK 1             
1 29228U 06021A   19045.41661399  .00000059  00000-0  11827-4 0  9997
2 29228  69.9371 352.8270 0003146 174.6297 185.4898 15.02405149699296
GENESIS 1               
1 29252U 06029A   19044.55405568  .00000352  00000-0  27291-4 0  9998
2 29252  64.5013 103.6963 0054024 260.2370  99.2650 15.17573434693744
CZ-4B R/B               
1 29507U 06046C   19044.94434515 -.00000256  00000-0 -14849-4 0  9997
2 29507  97.7848  62.7918 0046520   8.6958 351.5061 15.00450690671964
CZ-2C R/B               
1 31114U 07010B   19044.77128242 -.00000051  00000-0 -48227-5 0  9995
2 31114  98.3310 283.7080 0058621 252.9339 106.5411 14.19289725613544
COSMO-SKYMED 1          
1 31598U 07023A   19045.43125670  .00000181  00000-0  29241-4 0  9997
2 31598  97.8872 230.5541 0001526  88.8398 271.2993 14.82159161632391
GENESIS 2               
1 31789U 07028A   19044.76732936  .00000277  00000-0  24321-4 0  9998
2 31789  64.5037 143.2561 0040611 304.6494  55.0802 15.16809649640884
COSMOS 2428             
1 31792U 07029A   19045.05374687 -.00000291  00000-0 -13173-3 0  9991
2 31792  70.9575 219.7624 0007097  77.1093 283.0820 14.12547826599767
SL-16 R/B               
1 31793U 07029B   19044.89519301  .00000263  00000-0  16209-3 0  9997
2 31793  70.9752 194.7324 0002502 273.4874 207.5859 14.14412351600467
KORONAS-FOTON           
1 33504U 09003A   19044.90984098  .00000580  00000-0  28940-4 0  9992
2 33504  82.4446 349.8041 0019453 167.7753 192.3955 15.15340604553244
H-2A R/B                
1 38341U 12025E   19045.38759099  .00000095  00000-0  18647-4 0  9992
2 38341  98.4338 165.8455 0055664   5.8212 354.3636 14.83848403364921
CUSAT 2 & FALCON 9 R/B  
1 39271U 13055G   19045.21849004  .00004340  00000-0  10724-3 0  9991
2 39271  80.9665  71.4695 0606111 196.6514 161.3986 14.43729042280030
SL-4 R/B                
1 39679U 14021B   19044.84854408 -.00000005  00000-0  18425-4 0  9991
2 39679  51.6145 218.7740 0173514  49.8267 311.7750 15.06002917265237
ALOS-2                  
1 39766U 14029A   19045.39036325  .00000111  00000-0  21800-4 0  9995
2 39766  97.9203 144.0095 0001461  85.9612 274.1772 14.79473609255382
SL-27 R/B               
1 40354U 14084B   19045.42411061  .00000855  00000-0  22606-4 0  9999
2 40354  74.7396 319.2429 0037356  33.5389 326.8176 15.39510521233260
ASTRO-H (HITOMI)        
1 41337U 16012A   19044.90968139  .00000216  00000-0  10613-4 0  9995
2 41337  31.0044 233.3601 0012620 273.8929  86.0263 14.98547951164000
TIANGONG-2              
1 41765U 16057A   19045.30209214  .00003729  00000-0  48198-4 0  9997
2 41765  42.7850 339.6229 0006241 138.7246 357.6730 15.60678535137838
SHENZHOU-11 MODULE      
1 41868U 16061G   19044.83164272  .00010390  00000-0  64870-4 0  9994
2 41868  42.7933 282.5009 0005828 259.9094 151.7019 15.76975433128379
